{"type":"FeatureCollection","features":[{"type":"Feature","properties":{"nombre":"Distribuidor Nicho(Vicente Lopez)","id":"distribuidor-nicho-vicente-lopez","dia":null,"tipo":"distribuidor"},"geometry":{"type":"Polygon","coordinates":[[[-58.479602,-34.489693],[-58.487765,-34.493245],[-58.490794,-34.494638],[-58.494031,-34.496105],[-58.495893,-34.496999],[-58.506392,-34.501761],[-58.50871,-34.502787],[-58.514351,-34.505384],[-58.516079,-34.50618],[-58.521496,-34.508582],[-58.525261,-34.510288],[-58.531173,-34.513049],[-58.531087,-34.513323],[-58.53054,-34.514039],[-58.532,-34.514889],[-58.533158,-34.515667],[-58.534607,-34.516693],[-58.536871,-34.518354],[-58.537117,-34.518522],[-58.538694,-34.517258],[-58.540223,-34.518561],[-58.541435,-34.519613],[-58.542883,-34.520815],[-58.543645,-34.521496],[-58.544643,-34.522371],[-58.545426,-34.523078],[-58.54636,-34.523877],[-58.547111,-34.524425],[-58.553586,-34.530037],[-58.553768,-34.530196],[-58.546374,-34.536579],[-58.541649,-34.540746],[-58.538114,-34.543886],[-58.537803,-34.544152],[-58.536665,-34.543012],[-58.535549,-34.541757],[-58.533771,-34.539827],[-58.532452,-34.538996],[-58.53036,-34.537635],[-58.529812,-34.537334],[-58.528847,-34.539199],[-58.527784,-34.54111],[-58.527527,-34.541667],[-58.529072,-34.542383],[-58.527085,-34.544513],[-58.526517,-34.545264],[-58.525787,-34.547288],[-58.524885,-34.549792],[-58.524488,-34.550534],[-58.523801,-34.551674],[-58.521869,-34.554319],[-58.520088,-34.55666],[-58.518335,-34.559057],[-58.516468,-34.561478],[-58.515474,-34.562818],[-58.513725,-34.565177],[-58.512781,-34.566193],[-58.510968,-34.567887],[-58.510314,-34.568735],[-58.509563,-34.569662],[-58.509064,-34.568703],[-58.508436,-34.567709],[-58.50797,-34.566944],[-58.507476,-34.565641],[-58.50695,-34.564285],[-58.506553,-34.56345],[-58.505967,-34.562213],[-58.505055,-34.560436],[-58.504153,-34.558353],[-58.503167,-34.556158],[-58.502118,-34.553796],[-58.500697,-34.550943],[-58.499484,-34.549591],[-58.498336,-34.548752],[-58.496115,-34.547675],[-58.494871,-34.546774],[-58.491684,-34.545307],[-58.488568,-34.543914],[-58.486133,-34.542968],[-58.483112,-34.541748],[-58.480955,-34.540678],[-58.476052,-34.538239],[-58.470302,-34.536229],[-58.468382,-34.535349],[-58.464198,-34.533422],[-58.464069,-34.533025],[-58.463029,-34.532503],[-58.461773,-34.530956],[-58.459521,-34.527749],[-58.459281,-34.526739],[-58.462778,-34.525581],[-58.466356,-34.523662],[-58.467933,-34.522054],[-58.468287,-34.521178],[-58.468391,-34.519617],[-58.469367,-34.518246],[-58.468477,-34.516593],[-58.46836,-34.513667],[-58.470292,-34.511192],[-58.472352,-34.509459],[-58.474755,-34.507337],[-58.473167,-34.505569],[-58.476858,-34.501113],[-58.475964,-34.497399],[-58.478582,-34.494817],[-58.478367,-34.491634],[-58.479602,-34.489693]]]}},{"type":"Feature","properties":{"nombre":"Distribuidor Nicho(San Isidro)","id":"distribuidor-nicho-san-isidro","dia":null,"tipo":"distribuidor"},"geometry":{"type":"Polygon","coordinates":[[[-58.517759,-34.446056],[-58.5188,-34.448852],[-58.520238,-34.4491],[-58.520796,-34.449064],[-58.521278,-34.449197],[-58.522491,-34.449812],[-58.523506,-34.450293],[-58.524471,-34.450788],[-58.52668,-34.451822],[-58.527689,-34.452389],[-58.529094,-34.453123],[-58.531173,-34.454279],[-58.533185,-34.455257],[-58.534537,-34.456036],[-58.535663,-34.456593],[-58.53724,-34.457372],[-58.538826,-34.458181],[-58.540532,-34.458969],[-58.542495,-34.459933],[-58.54459,-34.460942],[-58.548204,-34.462649],[-58.550811,-34.463861],[-58.55509,-34.465911],[-58.561666,-34.469042],[-58.56589,-34.47101],[-58.566317,-34.471081],[-58.566832,-34.471505],[-58.567476,-34.471558],[-58.567712,-34.471921],[-58.571768,-34.473849],[-58.57475,-34.475335],[-58.575186,-34.475614],[-58.577868,-34.475924],[-58.578458,-34.477003],[-58.57893,-34.47741],[-58.58187,-34.478728],[-58.584312,-34.479835],[-58.584859,-34.480144],[-58.58561,-34.481436],[-58.5863,-34.482386],[-58.587706,-34.483067],[-58.589263,-34.483872],[-58.591083,-34.484842],[-58.592198,-34.485195],[-58.592671,-34.485726],[-58.593647,-34.48623],[-58.599623,-34.489281],[-58.591788,-34.496939],[-58.591382,-34.497419],[-58.590974,-34.497825],[-58.589646,-34.499332],[-58.587889,-34.50084],[-58.553712,-34.530198],[-58.53871,-34.517231],[-58.537131,-34.518479],[-58.533941,-34.516196],[-58.5306,-34.514036],[-58.530978,-34.513551],[-58.531209,-34.513203],[-58.531205,-34.513049],[-58.505419,-34.501248],[-58.492515,-34.495364],[-58.479633,-34.489675],[-58.478337,-34.484091],[-58.48056,-34.479002],[-58.490928,-34.465073],[-58.504987,-34.448204],[-58.512059,-34.446634],[-58.517759,-34.446056]]]}},{"type":"Feature","properties":{"nombre":"Zona Venta 5- VIERNES(5)","id":"zona-venta-5-viernes-5","dia":"Viernes","tipo":"venta"},"geometry":{"type":"Polygon","coordinates":[[[-58.568793,-34.518055],[-58.566219,-34.509145],[-58.562957,-34.504936],[-58.555533,-34.497686],[-58.550891,-34.494037],[-58.542888,-34.489881],[-58.505075,-34.470477],[-58.4997,-34.467595],[-58.495237,-34.463702],[-58.504421,-34.457297],[-58.513605,-34.452733],[-58.519355,-34.448769],[-58.531887,-34.452096],[-58.550202,-34.463361],[-58.569767,-34.472799],[-58.577749,-34.47463],[-58.585259,-34.477079],[-58.589165,-34.494377],[-58.58659,-34.503856],[-58.568793,-34.518055]]]}},{"type":"Feature","properties":{"nombre":"Zona Venta 1-LUNES(1)","id":"zona-venta-1-lunes-1","dia":"Lunes","tipo":"venta"},"geometry":{"type":"Polygon","coordinates":[[[-58.495183,-34.463692],[-58.481098,-34.480708],[-58.49511,-34.486864],[-58.49938,-34.492082],[-58.527603,-34.505086],[-58.538857,-34.508488],[-58.541432,-34.507109],[-58.54317,-34.510415],[-58.549929,-34.516268],[-58.554264,-34.520058],[-58.556882,-34.52218],[-58.560186,-34.524867],[-58.568855,-34.517406],[-58.566377,-34.509517],[-58.564201,-34.50666],[-58.561798,-34.503937],[-58.555871,-34.498172],[-58.552802,-34.495626],[-58.551043,-34.494246],[-58.548719,-34.493049],[-58.530147,-34.483413],[-58.509557,-34.472883],[-58.500233,-34.467979],[-58.495183,-34.463692]]]}},{"type":"Feature","properties":{"nombre":"Zona Venta 2- MARTES(2)","id":"zona-venta-2-martes-2","dia":"Martes","tipo":"venta"},"geometry":{"type":"Polygon","coordinates":[[[-58.482349,-34.481394],[-58.47664,-34.501308],[-58.493553,-34.508892],[-58.496603,-34.510362],[-58.49968,-34.51174],[-58.504077,-34.513669],[-58.511984,-34.51729],[-58.515847,-34.519041],[-58.524502,-34.523006],[-58.527796,-34.524474],[-58.545721,-34.537007],[-58.560183,-34.52488],[-58.552056,-34.518173],[-58.547462,-34.51416],[-58.543181,-34.510447],[-58.541446,-34.507114],[-58.538882,-34.508493],[-58.534376,-34.507167],[-58.52753,-34.505147],[-58.51265,-34.498276],[-58.502397,-34.493514],[-58.499219,-34.491981],[-58.495056,-34.486905],[-58.482327,-34.481033],[-58.482349,-34.481394]]]}},{"type":"Feature","properties":{"nombre":"Zona Venta 3- MIÉRCOLES(3)","id":"zona-venta-3-miercoles-3","dia":"Miércoles","tipo":"venta"},"geometry":{"type":"Polygon","coordinates":[[[-58.503925,-34.533841],[-58.512267,-34.538694],[-58.518086,-34.540756],[-58.526722,-34.545209],[-58.533561,-34.539651],[-58.537638,-34.543893],[-58.545809,-34.537212],[-58.529407,-34.525611],[-58.527281,-34.524269],[-58.523247,-34.522475],[-58.518347,-34.520231],[-58.516978,-34.519586],[-58.514551,-34.518467],[-58.504901,-34.514081],[-58.498809,-34.511411],[-58.492114,-34.508272],[-58.486616,-34.505813],[-58.478943,-34.502325],[-58.477013,-34.501445],[-58.473643,-34.51247],[-58.470901,-34.518068],[-58.476898,-34.520746],[-58.484534,-34.524431],[-58.490188,-34.527127],[-58.494241,-34.529158],[-58.499389,-34.531732],[-58.503377,-34.533756],[-58.503925,-34.533841]]]}},{"type":"Feature","properties":{"nombre":"Zona Venta 4 - JUEVES(4)","id":"zona-venta-4-jueves-4","dia":"Jueves","tipo":"venta"},"geometry":{"type":"Polygon","coordinates":[[[-58.526776,-34.545013],[-58.52508,-34.550297],[-58.522742,-34.554062],[-58.51722,-34.560334],[-58.502886,-34.555421],[-58.497951,-34.548688],[-58.483832,-34.542714],[-58.47047,-34.53654],[-58.463542,-34.534136],[-58.462619,-34.530352],[-58.462426,-34.526605],[-58.471338,-34.518288],[-58.479019,-34.521789],[-58.487324,-34.525775],[-58.498734,-34.531375],[-58.505165,-34.534793],[-58.508448,-34.536649],[-58.513501,-34.539463],[-58.518076,-34.540851],[-58.521295,-34.542335],[-58.526799,-34.54519],[-58.526776,-34.545013]]]}}]}